"H","diameter","albedo","e","a","q","i","om","w","ma","ad","n","per_y","data_arc","n_obs_used"
10.18,53.714,0.047,0.215669557968416,2.74909275294837,2.15619713410582,14.0816624706601,325.344085426741,64.6097373615844,29.0066570843657,3.34198837179092,0.216232009556087,4.55818861134849,38530,8649
17.13,2.696,0.061,0.232620483904265,3.181683387936,2.44155865860416,21.9447346795302,38.1295230501783,247.18231395388,304.432960930981,3.92180811726783,0.173667532275717,5.67536297920535,4547,48
16.64,3.194,0.052,0.188646283717498,2.18671335214338,1.7741980047061,5.09231309496964,123.471203985264,105.038695156239,196.60892106054,2.59922869958066,0.304800930674194,3.23367215837378,8520,1045
15.23,2.48,0.287,0.148534051132955,2.65737858423592,2.2626673777254,13.1726175859868,166.663309163438,90.3102242309828,195.465838715751,3.05208979074644,0.227522278268093,4.33199900629589,17670,2020
15.33,5.47,0.054,0.0923612502139684,2.74178656132618,2.48855172670224,3.28812863668553,225.02675330958,65.0748481578005,94.8849527944272,2.99502139595012,0.217096893343335,4.54002942275552,9941,1557
18.07,1.877,0.072,0.202691473447289,2.73369633779746,2.17959939913183,15.2728500810924,358.844724895283,181.287917457762,189.38704884225,3.28779327646309,0.218061335440143,4.51994977182972,5099,74
15.12,5.229,0.085,0.20036513115249,3.05141798973628,2.44002022402171,2.6672740824755,95.7347432866653,40.0004431917674,248.642206337694,3.66281575545086,0.18490621997877,5.33041172698638,16651,1448
16.06,1.754,0.173,0.0643386643242458,2.39063562661413,2.23682532351182,5.47620198473327,212.729040962534,329.829714778136,153.162306144293,2.54444592971644,0.266645336766592,3.69639422657642,9573,1653
15.22,2.823,0.267,0.019794128371988,2.56979735527333,2.51893045653305,15.1173322603305,142.530484874609,19.5156929925396,44.8993020647807,2.6206642540136,0.239252099306174,4.11961393954682,9213,1904
14.04,10.442,0.061,0.0439742284628137,2.77001622623427,2.64820689985615,8.87018614897027,112.185500089338,130.521499232175,163.286264568408,2.8918255526124,0.213786660954286,4.6103263831709,11327,3487
14.73,3.594,0.137,0.0443794246199323,2.63773807173084,2.52067677380934,13.5434263492533,331.659244600141,208.439085085295,66.5803287866995,2.75479936965235,0.230068188115316,4.28406157079629,10059,2788
15.68,4.296,0.08,0.139652231214094,3.22307860924098,2.77296849008206,18.8545908611942,28.5838134375611,253.731112738032,316.659091397173,3.6731887283999,0.17033258095966,5.78648123462054,11820,365
15.09,3.588,0.15,0.15784571177701,2.68019479913436,2.25713754336395,12.2763488275838,29.4421472612698,64.9561228041706,116.156796414923,3.10325205490476,0.224623160575271,4.387910315407,17035,1918
14.04,7.647,0.091,0.160352543000662,3.16344028522559,2.65617459085893,6.58977552191147,254.584123779895,353.891859462809,275.88506902406,3.67070597959226,0.175171969367798,5.62662101091125,10688,2535
13.35,15.377,0.051,0.134436596157093,2.47044984949906,2.1383309807556,3.0541192557025,81.7805571291128,45.8363150729191,130.974595199043,2.80256871824251,0.253828282273257,3.88304358576752,26233,4318
14.92,6.276,0.059,0.162168765835507,3.13341757430103,2.62527511342934,10.6175147420232,71.0519954657766,216.188094580606,136.871626335942,3.64156003517272,0.177695594824704,5.5467119730226,9036,799
14.13,3.767,0.247,0.183086514433414,2.24624527373363,1.83498805600322,5.05606479574769,8.81101090016432,275.939810470249,291.872520381244,2.65750249146406,0.292764429518787,3.36661897412748,25954,5329
15.56,4.816,0.053,0.0749950718779817,3.22951804742647,2.98732010932848,23.0804683654901,57.9671474056544,18.1516355082253,213.560079689898,3.47171598552446,0.169823387713601,5.80383124278363,8413,336
17.29,2.58,0.073,0.220969522819363,2.6129420374613,2.03556148228882,14.882803445317,283.222227342489,277.075330228396,303.028986568269,3.19032259263378,0.233350862256228,4.22379533479205,5842,115
15.02,3.221,0.155,0.0686229581669476,2.92696338992337,2.72610650366047,2.50926419932639,158.226325191919,146.080820677667,121.331852576104,3.12782027618627,0.196824038402239,5.00765196857348,12030,1615
16.54,3.091,0.056,0.153114155626695,2.17677675793112,1.84348142265268,0.404816298424785,122.886331487403,139.986862103483,280.756260238171,2.51007209320956,0.306890352712459,3.2116561327395,10664,1398
16.12,4.414,0.04,0.087788628814938,3.14297839852616,2.86706063452458,5.58125706130584,309.009620068083,292.664333898227,224.938432853617,3.41889616252774,0.176885396598791,5.57211789282491,11630,302
14.8,6.921,0.07,0.228900247198469,3.14405575588732,2.42438061615894,30.8435301850129,100.961152060788,159.259834032212,158.060629389919,3.86373089561569,0.17679448577882,5.57498317340412,8982,586
14.97,5.643,0.08,0.0831993231323469,3.21148323073432,2.94428999968634,17.2164273845662,68.7434859553508,56.8915281738224,135.988688735567,3.4786764617823,0.171255917156057,5.75528308589422,8985,817
17.36,1.863,0.097,0.155926053838655,2.57695291104116,2.17513881269448,13.2650118024408,70.9485528461176,347.576996850856,45.7116330984699,2.97876700938785,0.23825627624827,4.13683240117673,6821,268
16.04,1.97,0.035,0.143239928756909,2.91838166789065,2.50035288569652,13.108463140821,25.6643233638767,324.472776538056,52.288042243949,3.33641045008477,0.197692840273457,4.98564481143676,7443,425
14.62,5.404,0.139,0.106323708831641,3.12750875712054,2.79498042666005,25.1743126794864,103.730189975282,71.7029041368111,343.139684961303,3.46003708758104,0.178199414304276,5.53102987019135,9853,1239
15.48,2.532,0.159,0.23360056936391,2.23809156560084,1.71527210158792,4.63968500705275,49.5306276628394,289.415276600615,21.52126740059,2.76091102961376,0.294365763832893,3.34830474350638,13028,2029
14.54,4.753,0.079,0.101300015381137,3.05866516724515,2.74882233875747,8.38695665695887,302.897210083423,59.6358502311754,241.5929049822,3.36850799573283,0.184249436363977,5.34941274621049,9940,2023
16.2,1.682,0.299,0.238762450761074,2.24395450871444,1.70818243081742,6.83342331258184,169.324248473136,135.646084991728,250.488722158724,2.77972658661146,0.293212851474426,3.3614702712085,10952,1452
15.73,3.055,0.109,0.0997197121128436,2.81342124568151,2.53286768900999,6.84495681630627,272.761761937169,334.783330586793,85.5285834284919,3.09397480235303,0.208858391880891,4.71911267003169,8854,938
15.59,4.875,0.062,0.188872420194816,2.98937434476903,2.42476397740421,7.14536805997293,354.489959117247,128.260081911265,21.0405907173641,3.55398471213385,0.190692503040819,5.16866823629967,10047,955
16.34,3.309,0.064,0.135436287159204,2.3951668675184,2.07077435985497,2.65668181582577,74.7516926976097,289.087601982562,104.101007476278,2.71955937518183,0.26588902455482,3.70690849318733,10153,1376
16.72,2.711,0.032,0.0713120412600132,2.99462011123599,2.78106763830547,13.5608865545254,178.079416740544,78.6086579968598,65.5976657312291,3.20817258416652,0.19019165981372,5.18227920368807,5541,154
14.17,4.524,0.261,0.171293359757411,2.6660097511088,2.20933998369535,13.1252588142258,168.87660092654,240.150449038396,285.597722402566,3.12267951852224,0.226418273043324,4.35312163686966,9990,4564
14.15,9.913,0.054,0.146505019452655,3.14596509557411,2.68506541804965,26.2186772372381,235.404576619511,139.731780863112,80.6499930720513,3.60686477309857,0.176633560834567,5.58006235457532,11207,2118
11.64,21.518,0.085,0.0687382234784081,3.11281631265068,2.89884684930446,26.494559171318,212.958222128929,254.300677619495,201.598295063972,3.32678577599689,0.179462549560895,5.49210008316034,27592,5536
16.22,1.948,0.203,0.0938322424711921,2.56350648116177,2.32296691944492,15.2650296855586,67.0310765757783,145.821541950103,352.647069178473,2.80404604287861,0.24013333045822,4.10449595433834,7765,607
14.51,4.02,0.228,0.16080234071844,2.19488852986588,1.84194531664739,4.17977342223642,158.634078191234,102.275111132217,199.100357977887,2.54783174308437,0.303099605048624,3.25182305404007,26493,3952
15.48,5.627,0.033,0.0926412405516967,3.13363186002521,2.84332831708015,12.2004932246737,292.067459837637,120.750903264931,120.609272944565,3.42393540297026,0.177677368220582,5.54728096908733,8946,621
14.64,6.881,0.071,0.170925841936491,3.13595461126954,2.59993892906367,25.9038177410382,283.828033741297,126.160553177914,285.465927148662,3.67197029347541,0.177480000616594,5.55344985318534,8956,973
13.82,8.142,0.106,0.0770976661272534,3.22679738621379,2.97801883867119,21.5452463226606,251.160766351579,32.6948034973903,111.073354620575,3.4755759337564,0.170038211837205,5.79649875588668,12460,1882
16.55,2.935,0.062,0.0645575928438523,2.77843058640498,2.59906179586294,1.43867230927378,120.997417496371,199.845659998265,160.11121474359,2.95779937694702,0.212816230743267,4.63134921582451,8420,420
17.39,2.058,0.072,0.182429889063298,2.32516165379366,1.90098267123785,3.82022678900874,302.297008404103,286.479729693789,235.83777468293,2.74934063634948,0.277986909842793,3.54558523609959,16328,351
14.69,5.803,0.083,0.155531106765794,2.9931270300543,2.52760267037934,2.66509436793076,54.5883468697388,327.522545211339,358.271750285899,3.45865138972926,0.190333989388896,5.17840395471193,10951,1760
16.5,2,0.048,0.198498061100439,3.16624371225019,2.53775047439707,30.2523590027536,111.604759169232,353.999640253036,17.6872938763556,3.79473695010331,0.174939372088908,5.6341020983352,6724,171
15.84,5.948,0.029,0.0444713320170689,3.22875922318372,3.08517199976634,7.14810597428533,256.364741651324,329.673854337423,212.902300489907,3.3723464466011,0.169883259168509,5.801785815693,6315,330
15.43,2.521,0.211,0.233387281988359,3.101891808619,2.37794971038346,15.3617589477848,295.273391561661,215.03084676545,349.052464202505,3.82583390685455,0.180411453320384,5.46321347801147,9937,746
14.99,6.792,0.042,0.211886489154217,2.67312294999916,2.10672431304628,5.17534288909178,73.1353868224437,84.8973700249017,34.768094125363,3.23952158695205,0.22551512361678,4.3705551430885,12780,2356
